ONEWEB-0320             
1 49190U 21083E   24128.24476906  .00000104  00000+0  23110-3 0  9996
2 49190  87.9122 128.9348 0002072  90.3507 269.7862 13.18685414129658
ONEWEB-0321             
1 49191U 21083F   24127.92105776 -.00000042  00000+0 -13534-3 0  9997
2 49191  87.9208  67.8969 0002064  89.3420 270.7950 13.20771523135025
ONEWEB-0322             
1 49192U 21083G   24128.46605136  .00000067  00000+0  14887-3 0  9990
2 49192  87.8900 113.6616 0002352  98.3828 261.7568 13.13470972131033
ONEWEB-0324             
1 49193U 21083H   24128.53405583  .00000019  00000+0  15780-4 0  9994
2 49193  87.9121 128.8595 0002259  84.4912 275.6478 13.18686156129714
ONEWEB-0325             
1 49194U 21083J   24128.23528595  .00000040  00000+0  68300-4 0  9991
2 49194  87.9123 128.9325 0002054  92.0314 268.1053 13.18687115129681
ONEWEB-0326             
1 49195U 21083K   24128.24952204  .00000098  00000+0  21569-3 0  9999
2 49195  87.9120 128.9293 0001947  72.2086 287.9259 13.18686741129679
ONEWEB-0327             
1 49196U 21083L   24128.52692863  .00000078  00000+0  16594-3 0  9993
2 49196  87.9121 128.8861 0001850  78.3885 281.7455 13.18683782129737
ONEWEB-0328             
1 49197U 21083M   24127.92328200 -.00000157  00000+0 -46432-3 0  9992
2 49197  87.8888 113.7587 0002101  84.1303 276.0066 13.13471300129657
